1 08820U 76039A   03155.58541599  .00000015  00000-0  10000-3 0  9443
2 08820 109.8050 177.2884 0044604 304.0576  55.5896  6.38664388376256
